KUIPER-00095            
1 65134U 25171C   25335.50006943 -.01079503  00000+0 -75130-1 0  9993
2 65134  51.8856 226.8552 0005897 150.6777  85.4103 15.07893029  4128
KUIPER-00096            
1 65135U 25171D   25335.50006943  .00011408  00000+0  14654-2 0  9996
2 65135  51.8999 232.2977 0012331 176.9612 235.1130 14.81510167  5584
KUIPER-00097            
1 65136U 25171E   25335.50006943  .00005728  00000+0  78143-3 0  9999
2 65136  51.9006 234.8380 0011018 178.7165 283.5131 14.79818171  4013
KUIPER-00098            
1 65137U 25171F   25335.14588764 -.00006626  00000+0 -83971-3 0  9991
2 65137  51.9012 238.8489 0007849 165.5421 194.5767 14.79958153 17577
KUIPER-00099            
1 65138U 25171G   25335.50006943 -.01812419  00000+0 -15037+0 0  9996
2 65138  51.8932 228.3619 0005977 201.8737 114.2097 15.02018895  5503
KUIPER-00100            
1 65139U 25171H   25335.50006943 -.00367163  00000+0 -24192-1 0  9991
2 65139  51.8992 226.9086 0002480 214.3736  77.8128 15.08910759  5107
KUIPER-00102            
1 65140U 25171J   25335.50006943 -.00742061  00000+0 -61702-1 0  9995
2 65140  51.8991 228.2298 0012656 170.8081 104.6553 15.00637195  4598
KUIPER-00103            
1 65141U 25171K   25335.44171676  .00006134  00000+0  83265-3 0  9997
2 65141  51.8983 245.0330 0006424 162.8350 197.2831 14.79944019 18166
